[{"OBJECT_NAME":"ONEWEB-0542","OBJECT_ID":"2022-166E","EPOCH":"2026-03-09T21:52:20.359200","MEAN_MOTION":13.21823683,"ECCENTRICITY":0.00012716,"INCLINATION":87.9173,"RA_OF_ASC_NODE":263.759,"ARG_OF_PERICENTER":92.3649,"MEAN_ANOMALY":267.763,"EPHEMERIS_TYPE":0,"CLASSIFICATION_TYPE":"U","NORAD_CAT_ID":54646,"ELEMENT_SET_NO":999,"REV_AT_EPOCH":15842,"BSTAR":-0.00015680715,"MEAN_MOTION_DOT":-5.2e-7,"MEAN_MOTION_DDOT":0},{"OBJECT_NAME":"SL-14 DEB","OBJECT_ID":"1991-056BA","EPOCH":"2026-03-09T09:01:39.905184","MEAN_MOTION":13.20381684,"ECCENTRICITY":0.00056112,"INCLINATION":82.5194,"RA_OF_ASC_NODE":197.6003,"ARG_OF_PERICENTER":1.9774,"MEAN_ANOMALY":358.1371,"EPHEMERIS_TYPE":0,"CLASSIFICATION_TYPE":"U","NORAD_CAT_ID":45312,"ELEMENT_SET_NO":999,"REV_AT_EPOCH":29138,"BSTAR":0.0014704192,"MEAN_MOTION_DOT":6.07e-6,"MEAN_MOTION_DDOT":0}]
